{"type": "FeatureCollection", "features": [ {"type": "Feature", "properties": {"norad_id": 57795, "name": "TIANQI-24", "group": "active", "lat": 30.27546121661584, "lon": 56.51753311024298, "alt_km": 820.0739974642902, "timestamp": "2025-12-01T03:58:49.269590+00:00", "meta": {"OBJECT_NAME": "TIANQI-24", "OBJECT_ID": "2023-135D", "EPOCH": "2025-11-30T20:35:18.551040", "MEAN_MOTION": 14.23005533, "ECCENTRICITY": 0.0013873, "INCLINATION": 49.9736, "RA_OF_ASC_NODE": 267.1949, "ARG_OF_PERICENTER": 290.6863, "MEAN_ANOMALY": 69.2561, "EPHEMERIS_TYPE": 0, "CLASSIFICATION_TYPE": "U", "NORAD_CAT_ID": 57795, "ELEMENT_SET_NO": 999, "REV_AT_EPOCH": 11638, "BSTAR": 0.00029322, "MEAN_MOTION_DOT": 5.06e-06, "MEAN_MOTION_DDOT": 0, "GROUP": "active"}, "tle": {"line1": "1 57795U 23135D   25334.85785360  .00000506  00000+0  29322-3 0  9997", "line2": "2 57795  49.9736 267.1949 0013873 290.6863  69.2561 14.23005533116381"}}, "geometry": {"type": "Point", "coordinates": [56.51753311024298, 30.27546121661584]}}, {"type": "Feature", "properties": {"norad_id": 57797, "name": "YAOGAN-33 03", "group": "active", "lat": 29.77581494023518, "lon": -107.5000048260876, "alt_km": 691.4117611619613, "timestamp": "2025-12-01T03:58:49.269601+00:00", "meta": {"OBJECT_NAME": "YAOGAN-33 03", "OBJECT_ID": "2023-136A", "EPOCH": "2025-11-30T21:15:27.562752", "MEAN_MOTION": 14.58679888, "ECCENTRICITY": 0.0009931, "INCLINATION": 98.1892, "RA_OF_ASC_NODE": 256.95, "ARG_OF_PERICENTER": 81.0069, "MEAN_ANOMALY": 279.2254, "EPHEMERIS_TYPE": 0, "CLASSIFICATION_TYPE": "U", "NORAD_CAT_ID": 57797, "ELEMENT_SET_NO": 999, "REV_AT_EPOCH": 11902, "BSTAR": 0.00015386, "MEAN_MOTION_DOT": 6.72e-06, "MEAN_MOTION_DDOT": 0, "GROUP": "active"}, "tle": {"line1": "1 57797U 23136A   25334.88573568  .00000672  00000+0  15386-3 0  9997", "line2": "2 57797  98.1892 256.9500 0009931  81.0069 279.2254 14.58679888119025"}}, "geometry": {"type": "Point", "coordinates": [-107.5000048260876, 29.77581494023518]}}, {"type": "Feature", "properties": {"norad_id": 57800, "name": "XRISM", "group": "active", "lat": 8.823861361486971, "lon": 5.28112901478835, "alt_km": 528.6404190049652, "timestamp": "2025-12-01T03:58:49.269611+00:00", "meta": {"OBJECT_NAME": "XRISM", "OBJECT_ID": "2023-137A", "EPOCH": "2025-11-30T19:19:59.672928", "MEAN_MOTION": 15.10169631, "ECCENTRICITY": 0.0007591, "INCLINATION": 31.0005, "RA_OF_ASC_NODE": 202.5891, "ARG_OF_PERICENTER": 124.34, "MEAN_ANOMALY": 235.7957, "EPHEMERIS_TYPE": 0, "CLASSIFICATION_TYPE": "U", "NORAD_CAT_ID": 57800, "ELEMENT_SET_NO": 999, "REV_AT_EPOCH": 12282, "BSTAR": 0.00032755, "MEAN_MOTION_DOT": 5.577e-05, "MEAN_MOTION_DDOT": 0, "GROUP": "active"}, "tle": {"line1": "1 57800U 23137A   25334.80555177  .00005577  00000+0  32755-3 0  9999", "line2": "2 57800  31.0005 202.5891 0007591 124.3400 235.7957 15.10169631122820"}}, "geometry": {"type": "Point", "coordinates": [5.28112901478835, 8.823861361486971]}}, {"type": "Feature", "properties": {"norad_id": 57830, "name": "YAOGAN-40 01A", "group": "active", "lat": 71.29368809162453, "lon": 156.87509348481166, "alt_km": 842.8006566719869, "timestamp": "2025-12-01T03:58:49.269625+00:00", "meta": {"OBJECT_NAME": "YAOGAN-40 01A", "OBJECT_ID": "2023-139A", "EPOCH": "2025-11-30T20:40:07.094208", "MEAN_MOTION": 14.12395556, "ECCENTRICITY": 0.0002292, "INCLINATION": 85.9915, "RA_OF_ASC_NODE": 348.9634, "ARG_OF_PERICENTER": 92.1362, "MEAN_ANOMALY": 268.0083, "EPHEMERIS_TYPE": 0, "CLASSIFICATION_TYPE": "U", "NORAD_CAT_ID": 57830, "ELEMENT_SET_NO": 999, "REV_AT_EPOCH": 11470, "BSTAR": 7.5815e-05, "MEAN_MOTION_DOT": 1.59e-06, "MEAN_MOTION_DDOT": 0, "GROUP": "active"}, "tle": {"line1": "1 57830U 23139A   25334.86119322  .00000159  00000+0  75815-4 0  9994", "line2": "2 57830  85.9915 348.9634 0002292  92.1362 268.0083 14.12395556114708"}}, "geometry": {"type": "Point", "coordinates": [156.87509348481166, 71.29368809162453]}}, {"type": "Feature", "properties": {"norad_id": 57832, "name": "YAOGAN-40 01B", "group": "active", "lat": 72.08402719917603, "lon": 156.28294486640254, "alt_km": 842.663734724234, "timestamp": "2025-12-01T03:58:49.269635+00:00", "meta": {"OBJECT_NAME": "YAOGAN-40 01B", "OBJECT_ID": "2023-139C", "EPOCH": "2025-11-30T20:40:20.861184", "MEAN_MOTION": 14.12394758, "ECCENTRICITY": 0.0002402, "INCLINATION": 85.9917, "RA_OF_ASC_NODE": 348.9453, "ARG_OF_PERICENTER": 92.023, "MEAN_ANOMALY": 268.1228, "EPHEMERIS_TYPE": 0, "CLASSIFICATION_TYPE": "U", "NORAD_CAT_ID": 57832, "ELEMENT_SET_NO": 999, "REV_AT_EPOCH": 11471, "BSTAR": 9.6006e-05, "MEAN_MOTION_DOT": 1.96e-06, "MEAN_MOTION_DDOT": 0, "GROUP": "active"}, "tle": {"line1": "1 57832U 23139C   25334.86135256  .00000196  00000+0  96006-4 0  9996", "line2": "2 57832  85.9917 348.9453 0002402  92.0230 268.1228 14.12394758114713"}}, "geometry": {"type": "Point", "coordinates": [156.28294486640254, 72.08402719917603]}}, {"type": "Feature", "properties": {"norad_id": 57833, "name": "YAOGAN-40 01C", "group": "active", "lat": 71.69952830833269, "lon": 155.84661945264088, "alt_km": 843.1977185518408, "timestamp": "2025-12-01T03:58:49.269645+00:00", "meta": {"OBJECT_NAME": "YAOGAN-40 01C", "OBJECT_ID": "2023-139D", "EPOCH": "2025-11-30T20:40:14.228256", "MEAN_MOTION": 14.1239904, "ECCENTRICITY": 0.0001952, "INCLINATION": 85.9921, "RA_OF_ASC_NODE": 348.222, "ARG_OF_PERICENTER": 73.0357, "MEAN_ANOMALY": 287.104, "EPHEMERIS_TYPE": 0, "CLASSIFICATION_TYPE": "U", "NORAD_CAT_ID": 57833, "ELEMENT_SET_NO": 999, "REV_AT_EPOCH": 11481, "BSTAR": 9.7283e-05, "MEAN_MOTION_DOT": 1.98e-06, "MEAN_MOTION_DDOT": 0, "GROUP": "active"}, "tle": {"line1": "1 57833U 23139D   25334.86127579  .00000198  00000+0  97283-4 0  9996", "line2": "2 57833  85.9921 348.2220 0001952  73.0357 287.1040 14.12399040114815"}}, "geometry": {"type": "Point", "coordinates": [155.84661945264088, 71.69952830833269]}}, {"type": "Feature", "properties": {"norad_id": 57886, "name": "YAOGAN-39 02A", "group": "active", "lat": -8.585560283720561, "lon": -6.7095716407841985, "alt_km": 495.7410363974677, "timestamp": "2025-12-01T03:58:49.269661+00:00", "meta": {"OBJECT_NAME": "YAOGAN-39 02A", "OBJECT_ID": "2023-145A", "EPOCH": "2025-11-27T15:05:11.668992", "MEAN_MOTION": 15.22915076, "ECCENTRICITY": 0.00029074, "INCLINATION": 35.0031, "RA_OF_ASC_NODE": 27.9903, "ARG_OF_PERICENTER": 261.2811, "MEAN_ANOMALY": 98.7575, "EPHEMERIS_TYPE": 0, "CLASSIFICATION_TYPE": "U", "NORAD_CAT_ID": 57886, "ELEMENT_SET_NO": 999, "REV_AT_EPOCH": 12242, "BSTAR": 5.3859112e-05, "MEAN_MOTION_DOT": 1.257e-05, "MEAN_MOTION_DDOT": 0, "GROUP": "active"}, "tle": {"line1": "1 57886U 23145A   25331.62860728  .00001257  00000+0  53859-4 0  9990", "line2": "2 57886  35.0031  27.9903 0002907 261.2811  98.7575 15.22915076122427"}}, "geometry": {"type": "Point", "coordinates": [-6.7095716407841985, -8.585560283720561]}}, {"type": "Feature", "properties": {"norad_id": 57889, "name": "YAOGAN-39 02B", "group": "active", "lat": 10.671070949567628, "lon": 34.39496839311424, "alt_km": 516.9532954122624, "timestamp": "2025-12-01T03:58:49.269672+00:00", "meta": {"OBJECT_NAME": "YAOGAN-39 02B", "OBJECT_ID": "2023-145D", "EPOCH": "2025-11-30T20:00:02.321280", "MEAN_MOTION": 15.17085301, "ECCENTRICITY": 0.0008128, "INCLINATION": 34.9926, "RA_OF_ASC_NODE": 20.8406, "ARG_OF_PERICENTER": 167.0256, "MEAN_ANOMALY": 193.0667, "EPHEMERIS_TYPE": 0, "CLASSIFICATION_TYPE": "U", "NORAD_CAT_ID": 57889, "ELEMENT_SET_NO": 999, "REV_AT_EPOCH": 12274, "BSTAR": 0.00044959, "MEAN_MOTION_DOT": 9.096e-05, "MEAN_MOTION_DDOT": 0, "GROUP": "active"}, "tle": {"line1": "1 57889U 23145D   25334.83336020  .00009096  00000+0  44959-3 0  9991", "line2": "2 57889  34.9926  20.8406 0008128 167.0256 193.0667 15.17085301122747"}}, "geometry": {"type": "Point", "coordinates": [34.39496839311424, 10.671070949567628]}}, {"type": "Feature", "properties": {"norad_id": 57890, "name": "YAOGAN-39 02C", "group": "active", "lat": -3.0063655913664507, "lon": 14.568496381162191, "alt_km": 511.6232366870836, "timestamp": "2025-12-01T03:58:49.269682+00:00", "meta": {"OBJECT_NAME": "YAOGAN-39 02C", "OBJECT_ID": "2023-145E", "EPOCH": "2025-11-30T20:06:23.626080", "MEAN_MOTION": 15.17113976, "ECCENTRICITY": 0.0008499, "INCLINATION": 34.995, "RA_OF_ASC_NODE": 20.9185, "ARG_OF_PERICENTER": 59.6394, "MEAN_ANOMALY": 300.5158, "EPHEMERIS_TYPE": 0, "CLASSIFICATION_TYPE": "U", "NORAD_CAT_ID": 57890, "ELEMENT_SET_NO": 999, "REV_AT_EPOCH": 12271, "BSTAR": 0.00040681, "MEAN_MOTION_DOT": 8.233e-05, "MEAN_MOTION_DDOT": 0, "GROUP": "active"}, "tle": {"line1": "1 57890U 23145E   25334.83777345  .00008233  00000+0  40681-3 0  9992", "line2": "2 57890  34.9950  20.9185 0008499  59.6394 300.5158 15.17113976122718"}}, "geometry": {"type": "Point", "coordinates": [14.568496381162191, -3.0063655913664507]}}, {"type": "Feature", "properties": {"norad_id": 57956, "name": "SKYKRAFT-3D", "group": "active", "lat": 37.59939942513038, "lon": 108.19297192463377, "alt_km": 409.3282162405012, "timestamp": "2025-12-01T03:58:49.269702+00:00", "meta": {"OBJECT_NAME": "SKYKRAFT-3D", "OBJECT_ID": "2023-084BZ", "EPOCH": "2025-11-30T04:36:35.784576", "MEAN_MOTION": 15.52210808, "ECCENTRICITY": 0.00046076, "INCLINATION": 97.5919, "RA_OF_ASC_NODE": 113.0596, "ARG_OF_PERICENTER": 273.0622, "MEAN_ANOMALY": 87.0103, "EPHEMERIS_TYPE": 0, "CLASSIFICATION_TYPE": "U", "NORAD_CAT_ID": 57956, "ELEMENT_SET_NO": 999, "REV_AT_EPOCH": 12405, "BSTAR": 0.00075947364, "MEAN_MOTION_DOT": 0.00046151, "MEAN_MOTION_DDOT": 0, "GROUP": "active"}, "tle": {"line1": "1 57956U 23084BZ  25334.19208084  .00046151  00000+0  75947-3 0  9999", "line2": "2 57956  97.5919 113.0596 0004607 273.0622  87.0103 15.52210808124051"}}, "geometry": {"type": "Point", "coordinates": [108.19297192463377, 37.59939942513038]}}]}